{
  "type": "FeatureCollection",
  "features": [
    {
      "type": "Feature",
      "properties": {
        "norad_id": 30717,
        "name": "FENGYUN 1C DEB",
        "group": "fengyun-1c-debris",
        "lat": 11.417803469887257,
        "lon": -128.35449464621766,
        "alt_km": 837.3185360348971,
        "timestamp": "2025-12-05T04:52:15.570422+00:00",
        "meta_object_name": "FENGYUN 1C DEB",
        "meta_object_id": "1999-025ASB",
        "meta_epoch": "2025-11-30T02:21:23.039712",
        "meta_mean_motion": 14.20428729,
        "meta_eccentricity": 0.00475668,
        "meta_inclination": 99.0182,
        "meta_ra_of_asc_node": 44.6037,
        "meta_arg_of_pericenter": 294.0563,
        "meta_mean_anomaly": 65.5639,
        "meta_ephemeris_type": 0,
        "meta_classification_type": "U",
        "meta_norad_cat_id": 30717,
        "meta_element_set_no": 999,
        "meta_rev_at_epoch": 96357,
        "meta_bstar": 0.0015014558,
        "meta_mean_motion_dot": 3.211e-05,
        "meta_mean_motion_ddot": 0,
        "tle_line1": "1 30717U 99025ASB 25334.09818333  .00003211  00000+0  15015-2 0  9995",
        "tle_line2": "2 30717  99.0182  44.6037 0047566 294.0563  65.5639 14.20428729963573"
      },
      "geometry": {
        "type": "Point",
        "coordinates": [
          -128.35449464621766,
          11.417803469887257
        ]
      }
    },
    {
      "type": "Feature",
      "properties": {
        "norad_id": 30718,
        "name": "FENGYUN 1C DEB",
        "group": "fengyun-1c-debris",
        "lat": 43.42029905296973,
        "lon": -111.96516407668135,
        "alt_km": 776.2453141567667,
        "timestamp": "2025-12-05T04:52:15.570431+00:00",
        "meta_object_name": "FENGYUN 1C DEB",
        "meta_object_id": "1999-025ASC",
        "meta_epoch": "2025-12-04T16:25:51.949056",
        "meta_mean_motion": 14.24252008,
        "meta_eccentricity": 0.0057675,
        "meta_inclination": 98.8918,
        "meta_ra_of_asc_node": 58.991,
        "meta_arg_of_pericenter": 179.0472,
        "meta_mean_anomaly": 181.0827,
        "meta_ephemeris_type": 0,
        "meta_classification_type": "U",
        "meta_norad_cat_id": 30718,
        "meta_element_set_no": 999,
        "meta_rev_at_epoch": 96659,
        "meta_bstar": 0.0039217,
        "meta_mean_motion_dot": 9.17e-05,
        "meta_mean_motion_ddot": 0,
        "tle_line1": "1 30718U 99025ASC 25338.68462904  .00009170  00000+0  39217-2 0  9994",
        "tle_line2": "2 30718  98.8918  58.9910 0057675 179.0472 181.0827 14.24252008966596"
      },
      "geometry": {
        "type": "Point",
        "coordinates": [
          -111.96516407668135,
          43.42029905296973
        ]
      }
    },
    {
      "type": "Feature",
      "properties": {
        "norad_id": 30719,
        "name": "FENGYUN 1C DEB",
        "group": "fengyun-1c-debris",
        "lat": -76.99781979729828,
        "lon": 163.09037557796594,
        "alt_km": 700.6470804952987,
        "timestamp": "2025-12-05T04:52:15.570440+00:00",
        "meta_object_name": "FENGYUN 1C DEB",
        "meta_object_id": "1999-025ASD",
        "meta_epoch": "2025-12-04T16:04:14.489760",
        "meta_mean_motion": 14.58804176,
        "meta_eccentricity": 0.0011704,
        "meta_inclination": 98.8863,
        "meta_ra_of_asc_node": 119.867,
        "meta_arg_of_pericenter": 216.4596,
        "meta_mean_anomaly": 143.5805,
        "meta_ephemeris_type": 0,
        "meta_classification_type": "U",
        "meta_norad_cat_id": 30719,
        "meta_element_set_no": 999,
        "meta_rev_at_epoch": 97331,
        "meta_bstar": 0.0089595,
        "meta_mean_motion_dot": 0.00042135,
        "meta_mean_motion_ddot": 0,
        "tle_line1": "1 30719U 99025ASD 25338.66961215  .00042135  00000+0  89595-2 0  9994",
        "tle_line2": "2 30719  98.8863 119.8670 0011704 216.4596 143.5805 14.58804176973315"
      },
      "geometry": {
        "type": "Point",
        "coordinates": [
          163.09037557796594,
          -76.99781979729828
        ]
      }
    },
    {
      "type": "Feature",
      "properties": {
        "norad_id": 30720,
        "name": "FENGYUN 1C DEB",
        "group": "fengyun-1c-debris",
        "lat": 24.680429466018616,
        "lon": 148.22303740042923,
        "alt_km": 774.7038791195673,
        "timestamp": "2025-12-05T04:52:15.570450+00:00",
        "meta_object_name": "FENGYUN 1C DEB",
        "meta_object_id": "1999-025ASE",
        "meta_epoch": "2025-12-01T10:17:46.773312",
        "meta_mean_motion": 14.2908859,
        "meta_eccentricity": 0.00323724,
        "meta_inclination": 99.0369,
        "meta_ra_of_asc_node": 148.5071,
        "meta_arg_of_pericenter": 2.1711,
        "meta_mean_anomaly": 57.7271,
        "meta_ephemeris_type": 0,
        "meta_classification_type": "U",
        "meta_norad_cat_id": 30720,
        "meta_element_set_no": 999,
        "meta_rev_at_epoch": 97327,
        "meta_bstar": 0.00040425799,
        "meta_mean_motion_dot": 9.83e-06,
        "meta_mean_motion_ddot": 0,
        "tle_line1": "1 30720U 99025ASE 25335.42901358  .00000983  00000+0  40426-3 0  9995",
        "tle_line2": "2 30720  99.0369 148.5071 0032372   2.1711  57.7271 14.29088590973278"
      },
      "geometry": {
        "type": "Point",
        "coordinates": [
          148.22303740042923,
          24.680429466018616
        ]
      }
    },
    {
      "type": "Feature",
      "properties": {
        "norad_id": 30721,
        "name": "FENGYUN 1C DEB",
        "group": "fengyun-1c-debris",
        "lat": -8.114666662100829,
        "lon": -71.27541325311084,
        "alt_km": 679.869538888971,
        "timestamp": "2025-12-05T04:52:15.570460+00:00",
        "meta_object_name": "FENGYUN 1C DEB",
        "meta_object_id": "1999-025ASF",
        "meta_epoch": "2025-12-03T15:03:11.516832",
        "meta_mean_motion": 14.7127635,
        "meta_eccentricity": 0.00273375,
        "meta_inclination": 98.71,
        "meta_ra_of_asc_node": 108.2926,
        "meta_arg_of_pericenter": 9.5726,
        "meta_mean_anomaly": 117.1394,
        "meta_ephemeris_type": 0,
        "meta_classification_type": "U",
        "meta_norad_cat_id": 30721,
        "meta_element_set_no": 999,
        "meta_rev_at_epoch": 97708,
        "meta_bstar": 0.0047409938,
        "meta_mean_motion_dot": 0.00029504,
        "meta_mean_motion_ddot": 0,
        "tle_line1": "1 30721U 99025ASF 25337.62721663  .00029504  00000+0  47410-2 0  9998",
        "tle_line2": "2 30721  98.7100 108.2926 0027337   9.5726 117.1394 14.71276350977082"
      },
      "geometry": {
        "type": "Point",
        "coordinates": [
          -71.27541325311084,
          -8.114666662100829
        ]
      }
    },
    {
      "type": "Feature",
      "properties": {
        "norad_id": 30723,
        "name": "FENGYUN 1C DEB",
        "group": "fengyun-1c-debris",
        "lat": 14.356943659645882,
        "lon": -112.75177926136234,
        "alt_km": 760.6219394239424,
        "timestamp": "2025-12-05T04:52:15.570469+00:00",
        "meta_object_name": "FENGYUN 1C DEB",
        "meta_object_id": "1999-025ASH",
        "meta_epoch": "2025-12-03T17:42:49.827744",
        "meta_mean_motion": 14.41129588,
        "meta_eccentricity": 0.00148167,
        "meta_inclination": 98.8448,
        "meta_ra_of_asc_node": 63.4491,
        "meta_arg_of_pericenter": 288.3809,
        "meta_mean_anomaly": 201.4898,
        "meta_ephemeris_type": 0,
        "meta_classification_type": "U",
        "meta_norad_cat_id": 30723,
        "meta_element_set_no": 999,
        "meta_rev_at_epoch": 97241,
        "meta_bstar": 0.0032543146,
        "meta_mean_motion_dot": 0.00010469,
        "meta_mean_motion_ddot": 0,
        "tle_line1": "1 30723U 99025ASH 25337.73807671  .00010469  00000+0  32543-2 0  9997",
        "tle_line2": "2 30723  98.8448  63.4491 0014816 288.3809 201.4898 14.41129588972411"
      },
      "geometry": {
        "type": "Point",
        "coordinates": [
          -112.75177926136234,
          14.356943659645882
        ]
      }
    },
    {
      "type": "Feature",
      "properties": {
        "norad_id": 30724,
        "name": "FENGYUN 1C DEB",
        "group": "fengyun-1c-debris",
        "lat": -8.760844604873975,
        "lon": -18.19189827725007,
        "alt_km": 775.6323076936906,
        "timestamp": "2025-12-05T04:52:15.570478+00:00",
        "meta_object_name": "FENGYUN 1C DEB",
        "meta_object_id": "1999-025ASJ",
        "meta_epoch": "2025-12-02T10:57:10.970208",
        "meta_mean_motion": 14.37002332,
        "meta_eccentricity": 0.00930548,
        "meta_inclination": 99.3161,
        "meta_ra_of_asc_node": 160.2865,
        "meta_arg_of_pericenter": 290.0804,
        "meta_mean_anomaly": 99.0491,
        "meta_ephemeris_type": 0,
        "meta_classification_type": "U",
        "meta_norad_cat_id": 30724,
        "meta_element_set_no": 999,
        "meta_rev_at_epoch": 98305,
        "meta_bstar": 0.00053378755,
        "meta_mean_motion_dot": 1.61e-05,
        "meta_mean_motion_ddot": 0,
        "tle_line1": "1 30724U 99025ASJ 25336.45637697  .00001610  00000+0  53379-3 0  9994",
        "tle_line2": "2 30724  99.3161 160.2865 0093054 290.0804  99.0491 14.37002332983051"
      },
      "geometry": {
        "type": "Point",
        "coordinates": [
          -18.19189827725007,
          -8.760844604873975
        ]
      }
    }
  ]
}